{"epoch":1784799577,"count":18318,"objects":[{"id":"22490","name":"SCD 1","type":"PAYLOAD","l1":"1 22490U 93009B   26203.78983520  .00000359  00000-0  47267-4 0  9990","l2":"2 22490  24.9709 347.7497 0041934 154.5396 349.9994 14.46130844766275"},{"id":"25397","name":"TECHSAT 1B","type":"PAYLOAD","l1":"1 25397U 98043D   26203.46678159  .00000036  00000-0  35822-4 0  9992","l2":"2 25397  99.0091 197.1189 0002327 103.4335 256.7103 14.24434333456353"},{"id":"25504","name":"SCD 2","type":"PAYLOAD","l1":"1 25504U 98060A   26203.36795253  .00000313  00000-0  36489-4 0  9993","l2":"2 25504  24.9935 215.2005 0016928 134.2465 248.7662 14.45536331465427"},{"id":"25757","name":"TUBSAT","type":"PAYLOAD","l1":"1 25757U 99029B   26203.90960889  .00000072  00000-0  29482-4 0  9995","l2":"2 25757  98.6717 200.5928 0013148 239.2754 120.7146 14.52434512438435"},{"id":"25994","name":"TERRA","type":"PAYLOAD","l1":"1 25994U 99068A   26203.91024720  .00000287  00000-0  67347-4 0  9997","l2":"2 25994  97.9435 252.0364 0003648 107.6896 356.9651 14.61127958414826"},{"id":"27004","name":"MAROC TUBSAT","type":"PAYLOAD","l1":"1 27004U 01056D   26203.48074487 -.00000019  00000-0  31035-4 0  9997","l2":"2 27004  99.8104  21.0089 0020478  54.0994 330.8625 13.70263745231021"},{"id":"27424","name":"AQUA","type":"PAYLOAD","l1":"1 27424U 02022A   26203.91560834  .00000629  00000-0  13493-3 0  9994","l2":"2 27424  98.4303 173.9179 0001353 102.2720 334.9319 14.62136816288492"},{"id":"28220","name":"TANSUO 1","type":"PAYLOAD","l1":"1 28220U 04012A   26203.92529507  .00015198  00000-0  45548-3 0  9996","l2":"2 28220  97.8673 284.3365 0004436 239.8683 120.2119 15.34595624216574"},{"id":"28376","name":"AURA","type":"PAYLOAD","l1":"1 28376U 04026A   26203.86448430  .00000626  00000-0  13629-3 0  9996","l2":"2 28376  98.3435 160.6183 0001429  93.8003 266.3361 14.61376012171427"},{"id":"28649","name":"CARTOSAT-1","type":"PAYLOAD","l1":"1 28649U 05017A   26203.51055906  .00000868  00000-0  92762-4 0  9998","l2":"2 28649  97.5307 224.9733 0000951  58.4804 301.6508 14.91130144149089"},{"id":"28893","name":"SINAH 1","type":"PAYLOAD","l1":"1 28893U 05043D   26203.86368660  .00000286  00000-0  63742-4 0  9990","l2":"2 28893  98.2902 338.4042 0014923 159.9643 200.2148 14.64179342105747"},{"id":"29228","name":"RESURS DK-1","type":"PAYLOAD","l1":"1 29228U 06021A   26203.33295939  .00001431  00000-0  86164-4 0  9996","l2":"2 29228  69.9299 248.5646 0007524 263.4935  96.5374 15.13337369107894"},{"id":"29268","name":"KOMPSAT 2","type":"PAYLOAD","l1":"1 29268U 06031A   26203.97272203  .00000378  00000-0  79455-4 0  9994","l2":"2 29268  97.8326  26.6901 0013556 325.4103 195.8268 14.64679099 66710"},{"id":"29709","name":"LAPAN-TUBSAT","type":"PAYLOAD","l1":"1 29709U 07001A   26203.94309257  .00000126  00000-0  20978-4 0  9996","l2":"2 29709  98.1365 203.9765 0013561  71.4560 288.8127 14.85979764 56469"},{"id":"31113","name":"HAIYANG 1B","type":"PAYLOAD","l1":"1 31113U 07010A   26203.87391816  .00000083  00000-0  47143-4 0  9997","l2":"2 31113  98.3522 184.3396 0014825  94.9762 265.3114 14.31034812  5746"},{"id":"31598","name":"SKYMED 1","type":"PAYLOAD","l1":"1 31598U 07023A   26203.95780056  .00003014  00000-0  26540-3 0  9999","l2":"2 31598  97.8863  36.1174 0001936  93.5451 266.5991 14.97252401 35143"},{"id":"31698","name":"TERRA SAR X","type":"PAYLOAD","l1":"1 31698U 07026A   26203.49713428  .00000259  00000-0  15523-4 0  9999","l2":"2 31698  97.4457 210.7016 0001797  80.1769 279.9668 15.19149840 58582"},{"id":"32060","name":"WORLDVIEW 1","type":"PAYLOAD","l1":"1 32060U 07041A   26203.67168651  .00006150  00000-0  25214-3 0  9995","l2":"2 32060  97.3901 322.9209 0002248 177.8116 182.3132 15.24617597 48285"},{"id":"32289","name":"YAOGAN 3","type":"PAYLOAD","l1":"1 32289U 07055A   26203.96802917  .00001873  00000-0  19556-3 0  9994","l2":"2 32289  97.8147 233.4922 0001489  87.9111 272.2277 14.90900907 11208"},{"id":"32376","name":"SKYMED 2","type":"PAYLOAD","l1":"1 32376U 07059A   26203.94163948  .00000353  00000-0  50894-4 0  9990","l2":"2 32376  97.8898  27.0230 0001482  93.7848 266.3535 14.82155216  7305"},{"id":"32382","name":"RADARSAT 2","type":"PAYLOAD","l1":"1 32382U 07061A   26204.00283456 -.00000140  00000-0 -37343-4 0  9995","l2":"2 32382  98.5795 210.4244 0001305  87.7182 272.4150 14.29980151971077"},{"id":"32783","name":"CARTOSAT 2A","type":"PAYLOAD","l1":"1 32783U 08021A   26203.96467263  .00000623  00000-0  90487-4 0  9993","l2":"2 32783  97.7615 251.4487 0011766   3.2036 356.9249 14.79282677984097"},{"id":"33320","name":"HJ-1A","type":"PAYLOAD","l1":"1 33320U 08041A   26203.96934819  .00000848  00000-0  10761-3 0  9994","l2":"2 33320  97.6710 188.4294 0019727  25.6561 334.5628 14.84060328963713"},{"id":"33321","name":"HJ-1B","type":"PAYLOAD","l1":"1 33321U 08041B   26203.95488183  .00000604  00000-0  79009-4 0  9993","l2":"2 33321  97.6547 191.4782 0037914  67.0159 293.5049 14.83375427963718"},{"id":"33331","name":"GEOEYE 1","type":"PAYLOAD","l1":"1 33331U 08042A   26203.88102705  .00000342  00000-0  73204-4 0  9990","l2":"2 33331  98.1321 277.3866 0003440 317.8510  42.2428 14.64654087955370"},{"id":"33396","name":"THEOS","type":"PAYLOAD","l1":"1 33396U 08049A   26203.97171980 -.00000165  00000-0 -57649-4 0  9999","l2":"2 33396  98.5552 260.0897 0001145  93.1417 266.9891 14.20136853923040"},{"id":"33412","name":"SKYMED 3","type":"PAYLOAD","l1":"1 33412U 08054A   26203.93064251  .00004352  00000-0  29295-3 0  9997","l2":"2 33412  97.8256  63.0923 0016799 140.1669 220.0795 15.07154159962329"},{"id":"33446","name":"YAOGAN 4","type":"PAYLOAD","l1":"1 33446U 08061A   26203.31446922  .00000758  00000-0  99196-4 0  9997","l2":"2 33446  97.9302 136.5669 0013282 321.4364  38.5899 14.83260998950878"},{"id":"33492","name":"GOSAT (IBUKI)","type":"PAYLOAD","l1":"1 33492U 09002A   26203.59308472  .00000449  00000-0  87748-4 0  9998","l2":"2 33492  98.0915 314.2355 0001101  92.8914 267.2417 14.67540019936659"},{"id":"35681","name":"DEIMOS 1","type":"PAYLOAD","l1":"1 35681U 09041A   26203.93078133  .00000365  00000-0  61045-4 0  9998","l2":"2 35681  97.7448 359.6173 0002806  82.3614 277.7914 14.75268688912158"}]}